[{"OBJECT_NAME":"STARLINK-4478","OBJECT_ID":"2022-101C","EPOCH":"2026-03-09T10:02:51.290016","MEAN_MOTION":15.10614738,"ECCENTRICITY":0.00035117,"INCLINATION":53.2154,"RA_OF_ASC_NODE":75.1159,"ARG_OF_PERICENTER":60.8817,"MEAN_ANOMALY":299.2528,"EPHEMERIS_TYPE":0,"CLASSIFICATION_TYPE":"U","NORAD_CAT_ID":53529,"ELEMENT_SET_NO":999,"REV_AT_EPOCH":19612,"BSTAR":0.0015702237,"MEAN_MOTION_DOT":0.00026046,"MEAN_MOTION_DDOT":0},{"OBJECT_NAME":"DELTA 1 DEB","OBJECT_ID":"1978-026BU","EPOCH":"2026-03-09T11:22:20.910432","MEAN_MOTION":14.96481719,"ECCENTRICITY":0.00669454,"INCLINATION":98.7967,"RA_OF_ASC_NODE":254.5698,"ARG_OF_PERICENTER":166.8222,"MEAN_ANOMALY":193.4765,"EPHEMERIS_TYPE":0,"CLASSIFICATION_TYPE":"U","NORAD_CAT_ID":12227,"ELEMENT_SET_NO":999,"REV_AT_EPOCH":38498,"BSTAR":0.0006297912,"MEAN_MOTION_DOT":7.412e-5,"MEAN_MOTION_DDOT":0}]
